[{"OBJECT_NAME":"ALICE","OBJECT_ID":"2013-072F","EPOCH":"2026-03-09T16:03:25.924320","MEAN_MOTION":15.07155655,"ECCENTRICITY":0.01592016,"INCLINATION":120.4625,"RA_OF_ASC_NODE":282.3278,"ARG_OF_PERICENTER":246.5562,"MEAN_ANOMALY":111.8695,"EPHEMERIS_TYPE":0,"CLASSIFICATION_TYPE":"U","NORAD_CAT_ID":39467,"ELEMENT_SET_NO":999,"REV_AT_EPOCH":10026,"BSTAR":0.00062398338,"MEAN_MOTION_DOT":0.00012311,"MEAN_MOTION_DDOT":0},{"OBJECT_NAME":"STARLINK-34262","OBJECT_ID":"2025-139AA","EPOCH":"2026-03-09T10:08:00.213216","MEAN_MOTION":15.30193035,"ECCENTRICITY":0.00011241,"INCLINATION":53.1601,"RA_OF_ASC_NODE":128.2399,"ARG_OF_PERICENTER":75.8582,"MEAN_ANOMALY":284.2544,"EPHEMERIS_TYPE":0,"CLASSIFICATION_TYPE":"U","NORAD_CAT_ID":64688,"ELEMENT_SET_NO":999,"REV_AT_EPOCH":4030,"BSTAR":0.00049277059,"MEAN_MOTION_DOT":0.0001426,"MEAN_MOTION_DDOT":0}]
